{
  "type": "FeatureCollection",
  "features": [
    {
      "type": "Feature",
      "properties": {
        "mid": "11533"
      },
      "geometry": {
        "type": "Polygon",
        "coordinates": [
          [
            [
              1.4500000476837158,
              2.5500001907348633
            ],
            [
              714.8800048828125,
              74.25
            ],
            [
              732.260009765625,
              87.79000091552734
            ],
            [
              727.4099731445312,
              105.18000030517578
            ],
            [
              3.059999942779541,
              4.539999961853027
            ],
            [
              1.4500000476837158,
              2.5500001907348633
            ]
          ]
        ]
      }
    },
    {
      "type": "Feature",
      "properties": {
        "mid": "20583"
      },
      "geometry": {
        "type": "Polygon",
        "coordinates": [
          [
            [
              0,
              3.9700000286102295
            ],
            [
              1.0799999237060547,
              1.0699999332427979
            ],
            [
              7.460000038146973,
              0
            ],
            [
              688.8800048828125,
              2.430000066757202
            ],
            [
              688.8800048828125,
              862.8499755859375
            ],
            [
              657.7899780273438,
              909.719970703125
            ],
            [
              3.5999999046325684,
              909.719970703125
            ],
            [
              2.6500000953674316,
              853.5599975585938
            ],
            [
              0,
              7.460000038146973
            ],
            [
              0,
              3.9700000286102295
            ]
          ]
        ]
      }
    }
  ]
}